start=new Date('2022-06-24T00:00:00.000Z').valueOf();
sats=[{"MEAN_ANOMALY":"311.8425","OBJECT_TYPE":"PAYLOAD","APOAPSIS":"548.614","MEAN_MOTION_DDOT":"0.0000000000000","PERIAPSIS":"545.839","COUNTRY_CODE":"US","CLASSIFICATION_TYPE":"U","REV_AT_EPOCH":"9285","BSTAR":"-0.00003069400000","FILE":"3500539","SEMIMAJOR_AXIS":"6925.361","REF_FRAME":"TEME","ECCENTRICITY":"0.00020030","NORAD_CAT_ID":"46711","TIME_SYSTEM":"UTC","EPHEMERIS_TYPE":"0","CENTER_NAME":"EARTH","ELEMENT_SET_NO":"999","LAUNCH_DATE":"2020-10-18","SITE":"AFETR","MEAN_MOTION":"15.06395825","GP_ID":"206685309","ARG_OF_PERICENTER":"48.2735","OBJECT_ID":"2020-073AT","TLE_LINE1":"1 46711U 20073AT  22174.36341576 -.00000739  00000-0 -30694-4 0  9999","OBJECT_NAME":"STARLINK-1813","DECAY_DATE":null,"TLE_LINE2":"2 46711  53.0544 205.9248 0002003  48.2735 311.8425 15.06395825 92858","RA_OF_ASC_NODE":"205.9248","PERIOD":"95.592","INCLINATION":"53.0544","RCS_SIZE":"LARGE","EPOCH":"2022-06-23T08:43:19.121664","MEAN_ELEMENT_THEORY":"SGP4","MEAN_MOTION_DOT":"-0.00000739"},{"SEMIMAJOR_AXIS":"6925.371","REF_FRAME":"TEME","ECCENTRICITY":"0.00016650","NORAD_CAT_ID":"46712","TIME_SYSTEM":"UTC","COUNTRY_CODE":"US","CLASSIFICATION_TYPE":"U","BSTAR":"-0.00000229450000","REV_AT_EPOCH":"9339","FILE":"3500685","MEAN_ANOMALY":"298.9323","OBJECT_TYPE":"PAYLOAD","MEAN_MOTION_DDOT":"0.0000000000000","PERIAPSIS":"546.083","APOAPSIS":"548.389","MEAN_MOTION_DOT":"-0.00000316","RA_OF_ASC_NODE":"204.0465","INCLINATION":"53.0531","PERIOD":"95.593","RCS_SIZE":"LARGE","EPOCH":"2022-06-23T19:20:16.807776","MEAN_ELEMENT_THEORY":"SGP4","OBJECT_NAME":"STARLINK-1814","TLE_LINE1":"1 46712U 20073AU  22174.80575009 -.00000316  00000-0 -22945-5 0  9991","DECAY_DATE":null,"TLE_LINE2":"2 46712  53.0531 204.0465 0001665  61.1833 298.9323 15.06392680 93390","ELEMENT_SET_NO":"999","EPHEMERIS_TYPE":"0","CENTER_NAME":"EARTH","LAUNCH_DATE":"2020-10-18","SITE":"AFETR","MEAN_MOTION":"15.06392680","GP_ID":"206691666","ARG_OF_PERICENTER":"61.1833","OBJECT_ID":"2020-073AU"},{"COUNTRY_CODE":"US","CLASSIFICATION_TYPE":"U","REV_AT_EPOCH":"9286","BSTAR":"-0.00001216400000","FILE":"3500539","MEAN_ANOMALY":"311.4441","OBJECT_TYPE":"PAYLOAD","APOAPSIS":"548.402","MEAN_MOTION_DDOT":"0.0000000000000","PERIAPSIS":"546.067","REF_FRAME":"TEME","SEMIMAJOR_AXIS":"6925.369","NORAD_CAT_ID":"46713","ECCENTRICITY":"0.00016860","TIME_SYSTEM":"UTC","TLE_LINE1":"1 46713U 20073AV  22174.47304747 -.00000463  00000-0 -12164-4 0  9998","OBJECT_NAME":"STARLINK-1815","DECAY_DATE":null,"TLE_LINE2":"2 46713  53.0530 205.4027 0001686  48.6692 311.4441 15.06393266 92869","EPHEMERIS_TYPE":"0","CENTER_NAME":"EARTH","ELEMENT_SET_NO":"999","LAUNCH_DATE":"2020-10-18","SITE":"AFETR","MEAN_MOTION":"15.06393266","GP_ID":"206684309","OBJECT_ID":"2020-073AV","ARG_OF_PERICENTER":"48.6692","MEAN_MOTION_DOT":"-0.00000463","RA_OF_ASC_NODE":"205.4027","PERIOD":"95.593","INCLINATION":"53.0530","EPOCH":"2022-06-23T11:21:11.301408","RCS_SIZE":"LARGE","MEAN_ELEMENT_THEORY":"SGP4"},{"MEAN_MOTION_DOT":"0.00000290","RA_OF_ASC_NODE":"203.9803","PERIOD":"95.592","INCLINATION":"53.0521","RCS_SIZE":"LARGE","EPOCH":"2022-06-23T19:04:19.526016","MEAN_ELEMENT_THEORY":"SGP4","TLE_LINE1":"1 46714U 20073AW  22174.79467044  .00000290  00000-0  38338-4 0  9991","OBJECT_NAME":"STARLINK-1816","DECAY_DATE":null,"TLE_LINE2":"2 46714  53.0521 203.9803 0001351  56.8690 303.2429 15.06396283 93399","EPHEMERIS_TYPE":"0","CENTER_NAME":"EARTH","ELEMENT_SET_NO":"999","LAUNCH_DATE":"2020-10-18","MEAN_MOTION":"15.06396283","SITE":"AFETR","GP_ID":"206691664","OBJECT_ID":"2020-073AW","ARG_OF_PERICENTER":"56.8690","REF_FRAME":"TEME","SEMIMAJOR_AXIS":"6925.360","NORAD_CAT_ID":"46714","ECCENTRICITY":"0.00013510","TIME_SYSTEM":"UTC","COUNTRY_CODE":"US","CLASSIFICATION_TYPE":"U","REV_AT_EPOCH":"9339","BSTAR":"0.00003833800000","FILE":"3500685","MEAN_ANOMALY":"303.2429","OBJECT_TYPE":"PAYLOAD","APOAPSIS":"548.161","PERIAPSIS":"546.289","MEAN_MOTION_DDOT":"0.0000000000000"},{"REF_FRAME":"TEME","SEMIMAJOR_AXIS":"6925.373","ECCENTRICITY":"0.00018050","NORAD_CAT_ID":"46715","TIME_SYSTEM":"UTC","COUNTRY_CODE":"US","CLASSIFICATION_TYPE":"U","REV_AT_EPOCH":"9285","BSTAR":"0.00000412020000","FILE":"3500539","MEAN_ANOMALY":"311.9273","OBJECT_TYPE":"PAYLOAD","APOAPSIS":"548.488","PERIAPSIS":"545.988","MEAN_MOTION_DDOT":"0.0000000000000","MEAN_MOTION_DOT":"-0.00000220","RA_OF_ASC_NODE":"205.7957","PERIOD":"95.593","INCLINATION":"53.0552","EPOCH":"2022-06-23T09:25:47.313408","RCS_SIZE":"LARGE","MEAN_ELEMENT_THEORY":"SGP4","TLE_LINE1":"1 46715U 20073AX  22174.39290872 -.00000220  00000-0  41202-5 0  9990","OBJECT_NAME":"STARLINK-1817","DECAY_DATE":null,"TLE_LINE2":"2 46715  53.0552 205.7957 0001805  48.1870 311.9273 15.06391983 92857","CENTER_NAME":"EARTH","EPHEMERIS_TYPE":"0","ELEMENT_SET_NO":"999","LAUNCH_DATE":"2020-10-18","SITE":"AFETR","MEAN_MOTION":"15.06391983","GP_ID":"206684810","OBJECT_ID":"2020-073AX","ARG_OF_PERICENTER":"48.1870"},{"TIME_SYSTEM":"UTC","SEMIMAJOR_AXIS":"6925.330","REF_FRAME":"TEME","NORAD_CAT_ID":"46716","ECCENTRICITY":"0.00015970","REV_AT_EPOCH":"9265","BSTAR":"0.00006191300000","FILE":"3500539","COUNTRY_CODE":"US","CLASSIFICATION_TYPE":"U","APOAPSIS":"548.301","PERIAPSIS":"546.089","MEAN_MOTION_DDOT":"0.0000000000000","OBJECT_TYPE":"PAYLOAD","MEAN_ANOMALY":"296.8139","MEAN_MOTION_DOT":"0.00000641","EPOCH":"2022-06-23T11:23:12.359904","RCS_SIZE":"LARGE","MEAN_ELEMENT_THEORY":"SGP4","RA_OF_ASC_NODE":"220.4136","PERIOD":"95.592","INCLINATION":"53.0525","TLE_LINE2":"2 46716  53.0525 220.4136 0001597  63.3013 296.8139 15.06405957 92654","TLE_LINE1":"1 46716U 20073AY  22174.47444861  .00000641  00000-0  61913-4 0  9995","OBJECT_NAME":"STARLINK-1818","DECAY_DATE":null,"SITE":"AFETR","MEAN_MOTION":"15.06405957","GP_ID":"206685560","ARG_OF_PERICENTER":"63.3013","OBJECT_ID":"2020-073AY","EPHEMERIS_TYPE":"0","CENTER_NAME":"EARTH","ELEMENT_SET_NO":"999","LAUNCH_DATE":"2020-10-18"},{"TIME_SYSTEM":"UTC","NORAD_CAT_ID":"46717","ECCENTRICITY":"0.00015820","SEMIMAJOR_AXIS":"6925.365","REF_FRAME":"TEME","FILE":"3500809","REV_AT_EPOCH":"9339","BSTAR":"-0.00000994720000","CLASSIFICATION_TYPE":"U","COUNTRY_CODE":"US","APOAPSIS":"548.326","MEAN_MOTION_DDOT":"0.0000000000000","PERIAPSIS":"546.135","MEAN_ANOMALY":"294.4572","OBJECT_TYPE":"PAYLOAD","MEAN_MOTION_DOT":"-0.00000430","MEAN_ELEMENT_THEORY":"SGP4","EPOCH":"2022-06-23T19:25:33.989088","RCS_SIZE":"LARGE","PERIOD":"95.592","INCLINATION":"53.0548","RA_OF_ASC_NODE":"203.9182","TLE_LINE2":"2 46717  53.0548 203.9182 0001582  65.6582 294.4572 15.06394526 93393","DECAY_DATE":null,"TLE_LINE1":"1 46717U 20073AZ  22174.80942117 -.00000430  00000-0 -99472-5 0  9990","OBJECT_NAME":"STARLINK-1820","GP_ID":"206694344","ARG_OF_PERICENTER":"65.6582","OBJECT_ID":"2020-073AZ","SITE":"AFETR","MEAN_MOTION":"15.06394526","LAUNCH_DATE":"2020-10-18","EPHEMERIS_TYPE":"0","CENTER_NAME":"EARTH","ELEMENT_SET_NO":"999"},{"COUNTRY_CODE":"US","CLASSIFICATION_TYPE":"U","REV_AT_EPOCH":"9319","BSTAR":"0.00019935000000","FILE":"3500809","OBJECT_TYPE":"PAYLOAD","MEAN_ANOMALY":"297.8008","APOAPSIS":"548.270","PERIAPSIS":"546.134","MEAN_MOTION_DDOT":"0.0000000000000","REF_FRAME":"TEME","SEMIMAJOR_AXIS":"6925.337","NORAD_CAT_ID":"46718","ECCENTRICITY":"0.00015420","TIME_SYSTEM":"UTC","TLE_LINE1":"1 46718U 20073BA  22174.84947211  .00002689  00000-0  19935-3 0  9995","OBJECT_NAME":"STARLINK-1821","DECAY_DATE":null,"TLE_LINE2":"2 46718  53.0531 218.7116 0001542  62.3138 297.8008 15.06403659 93191","CENTER_NAME":"EARTH","EPHEMERIS_TYPE":"0","ELEMENT_SET_NO":"999","LAUNCH_DATE":"2020-10-18","SITE":"AFETR","MEAN_MOTION":"15.06403659","GP_ID":"206694504","OBJECT_ID":"2020-073BA","ARG_OF_PERICENTER":"62.3138","MEAN_MOTION_DOT":"0.00002689","RA_OF_ASC_NODE":"218.7116","PERIOD":"95.592","INCLINATION":"53.0531","EPOCH":"2022-06-23T20:23:14.390304","RCS_SIZE":"LARGE","MEAN_ELEMENT_THEORY":"SGP4"},{"MEAN_ANOMALY":"302.4146","OBJECT_TYPE":"PAYLOAD","APOAPSIS":"548.428","PERIAPSIS":"546.108","MEAN_MOTION_DDOT":"0.0000000000000","CLASSIFICATION_TYPE":"U","COUNTRY_CODE":"US","FILE":"3500539","REV_AT_EPOCH":"9314","BSTAR":"0.00010082000000","NORAD_CAT_ID":"46719","ECCENTRICITY":"0.00016750","SEMIMAJOR_AXIS":"6925.403","REF_FRAME":"TEME","TIME_SYSTEM":"UTC","LAUNCH_DATE":"2020-10-18","EPHEMERIS_TYPE":"0","CENTER_NAME":"EARTH","ELEMENT_SET_NO":"999","GP_ID":"206685310","ARG_OF_PERICENTER":"57.7006","OBJECT_ID":"2020-073BB","MEAN_MOTION":"15.06382231","SITE":"AFETR","DECAY_DATE":null,"TLE_LINE1":"1 46719U 20073BB  22174.43530867  .00001220  00000-0  10082-3 0  9990","OBJECT_NAME":"STARLINK-1822","TLE_LINE2":"2 46719  53.0535 185.5944 0001675  57.7006 302.4146 15.06382231 93148","PERIOD":"95.593","INCLINATION":"53.0535","RA_OF_ASC_NODE":"185.5944","MEAN_ELEMENT_THEORY":"SGP4","RCS_SIZE":"LARGE","EPOCH":"2022-06-23T10:26:50.669088","MEAN_MOTION_DOT":"0.00001220"},{"TIME_SYSTEM":"UTC","SEMIMAJOR_AXIS":"6722.451","REF_FRAME":"TEME","NORAD_CAT_ID":"46720","ECCENTRICITY":"0.00035670","APOAPSIS":"346.714","MEAN_MOTION_DDOT":"0.0000000000000","PERIAPSIS":"341.918","OBJECT_TYPE":"PAYLOAD","MEAN_ANOMALY":"275.0443","REV_AT_EPOCH":"9497","BSTAR":"0.00063685000000","FILE":"3500418","COUNTRY_CODE":"US","CLASSIFICATION_TYPE":"U","EPOCH":"2022-06-23T11:45:23.025312","RCS_SIZE":"LARGE","MEAN_ELEMENT_THEORY":"SGP4","RA_OF_ASC_NODE":"89.8339","PERIOD":"91.422","INCLINATION":"53.0477","MEAN_MOTION_DOT":"0.00097604","MEAN_MOTION":"15.75111605","SITE":"AFETR","OBJECT_ID":"2020-073BC","GP_ID":"206660476","ARG_OF_PERICENTER":"85.0983","EPHEMERIS_TYPE":"0","CENTER_NAME":"EARTH","ELEMENT_SET_NO":"999","LAUNCH_DATE":"2020-10-18","TLE_LINE2":"2 46720  53.0477  89.8339 0003567  85.0983 275.0443 15.75111605 94977","TLE_LINE1":"1 46720U 20073BC  22174.48984983  .00097604  00000-0  63685-3 0  9997","OBJECT_NAME":"STARLINK-1823","DECAY_DATE":null}];
